ORBCOMM-X               
1 21576U 91050C   25172.46760955  .00000215  00000+0  76538-4 0  9995
2 21576  98.3433 238.9794 0004079 155.6173 204.5211 14.43265954782738
ORBCOMM FM01            
1 23545U 95017A   25171.95900621  .00003731  00000+0  39384-3 0  9992
2 23545  69.9639  64.7295 0005233 284.5150  75.5424 14.90115773613425
ORBCOMM FM02            
1 23546U 95017B   25172.16788662  .00003718  00000+0  38409-3 0  9998
2 23546  69.9650  83.5869 0006629 289.2001  70.8437 14.90984589612758
ORBCOMM FM08            
1 25112U 97084A   25172.53372537  .00000942  00000+0  30322-3 0  9998
2 25112  45.0155 346.9992 0006087 261.4757  98.5405 14.45823957442007
ORBCOMM FM10            
1 25113U 97084B   25172.51548031  .00000902  00000+0  29333-3 0  9997
2 25113  45.0167 349.4748 0005002 225.4747 134.5697 14.45612056617142
ORBCOMM FM11            
1 25114U 97084C   25172.52076958  .00000879  00000+0  28837-3 0  9994
2 25114  45.0150 350.0897 0005754 228.4966 131.5392 14.45360852442103
ORBCOMM FM09            
1 25116U 97084E   25172.23937832  .00000877  00000+0  28836-3 0  9998
2 25116  45.0163 352.1262 0006220 214.8821 145.1623 14.45258074442061
